AMOS-17                 
1 44479U 19050A   26064.74177078  .00000102  00000+0  00000+0 0  9993
2 44479   0.0450 291.1442 0001437  56.4653  99.8642  1.00271937 24145
